{
  "type": "FeatureCollection",
  "features": [
    {
      "type": "Feature",
      "properties": {
        "norad_id": 66834,
        "name": "STARLINK-35840",
        "group": "last-30-days",
        "lat": -6.337969802219897,
        "lon": 175.0869032358235,
        "alt_km": 412.5808420340827,
        "timestamp": "2025-12-20T09:36:00.353620+00:00",
        "meta_object_name": "STARLINK-35840",
        "meta_object_id": "2025-280P",
        "meta_epoch": "2025-12-20T04:00:00.999072",
        "meta_mean_motion": 15.52516136,
        "meta_eccentricity": 0.0003103,
        "meta_inclination": 69.9993,
        "meta_ra_of_asc_node": 178.0444,
        "meta_arg_of_pericenter": 265.9581,
        "meta_mean_anomaly": 223.6975,
        "meta_ephemeris_type": 0,
        "meta_classification_type": "U",
        "meta_norad_cat_id": 66834,
        "meta_element_set_no": 999,
        "meta_rev_at_epoch": 409,
        "meta_bstar": -0.00013177,
        "meta_mean_motion_dot": -8.264e-05,
        "meta_mean_motion_ddot": 0,
        "tle_line1": "1 66834U 25280P   25354.16667823 -.00008264  00000+0 -13177-3 0  9995",
        "tle_line2": "2 66834  69.9993 178.0444 0003103 265.9581 223.6975 15.52516136  4097"
      },
      "geometry": {
        "type": "Point",
        "coordinates": [
          175.0869032358235,
          -6.337969802219897
        ]
      }
    },
    {
      "type": "Feature",
      "properties": {
        "norad_id": 66835,
        "name": "STARLINK-35890",
        "group": "last-30-days",
        "lat": -4.534113340430766,
        "lon": 175.74895468330362,
        "alt_km": 412.3542237790116,
        "timestamp": "2025-12-20T09:36:00.353630+00:00",
        "meta_object_name": "STARLINK-35890",
        "meta_object_id": "2025-280Q",
        "meta_epoch": "2025-12-20T04:00:00.999072",
        "meta_mean_motion": 15.52519822,
        "meta_eccentricity": 0.0003004,
        "meta_inclination": 69.9993,
        "meta_ra_of_asc_node": 178.043,
        "meta_arg_of_pericenter": 267.9698,
        "meta_mean_anomaly": 223.6048,
        "meta_ephemeris_type": 0,
        "meta_classification_type": "U",
        "meta_norad_cat_id": 66835,
        "meta_element_set_no": 999,
        "meta_rev_at_epoch": 409,
        "meta_bstar": -0.00013168,
        "meta_mean_motion_dot": -8.26e-05,
        "meta_mean_motion_ddot": 0,
        "tle_line1": "1 66835U 25280Q   25354.16667823 -.00008260  00000+0 -13168-3 0  9992",
        "tle_line2": "2 66835  69.9993 178.0430 0003004 267.9698 223.6048 15.52519822  4090"
      },
      "geometry": {
        "type": "Point",
        "coordinates": [
          175.74895468330362,
          -4.534113340430766
        ]
      }
    },
    {
      "type": "Feature",
      "properties": {
        "norad_id": 66836,
        "name": "STARLINK-35838",
        "group": "last-30-days",
        "lat": -2.712248480901976,
        "lon": 176.41247873074997,
        "alt_km": 412.23584561509415,
        "timestamp": "2025-12-20T09:36:00.353640+00:00",
        "meta_object_name": "STARLINK-35838",
        "meta_object_id": "2025-280R",
        "meta_epoch": "2025-12-20T04:00:00.999072",
        "meta_mean_motion": 15.52515311,
        "meta_eccentricity": 0.0002993,
        "meta_inclination": 69.9995,
        "meta_ra_of_asc_node": 178.04,
        "meta_arg_of_pericenter": 267.0651,
        "meta_mean_anomaly": 226.4516,
        "meta_ephemeris_type": 0,
        "meta_classification_type": "U",
        "meta_norad_cat_id": 66836,
        "meta_element_set_no": 999,
        "meta_rev_at_epoch": 409,
        "meta_bstar": -3.6097e-05,
        "meta_mean_motion_dot": -2.387e-05,
        "meta_mean_motion_ddot": 0,
        "tle_line1": "1 66836U 25280R   25354.16667823 -.00002387  00000+0 -36097-4 0  9994",
        "tle_line2": "2 66836  69.9995 178.0400 0002993 267.0651 226.4516 15.52515311  4096"
      },
      "geometry": {
        "type": "Point",
        "coordinates": [
          176.41247873074997,
          -2.712248480901976
        ]
      }
    },
    {
      "type": "Feature",
      "properties": {
        "norad_id": 66837,
        "name": "STARLINK-35729",
        "group": "last-30-days",
        "lat": -0.895207293090491,
        "lon": 177.07288562567217,
        "alt_km": 411.8942116056496,
        "timestamp": "2025-12-20T09:36:00.353651+00:00",
        "meta_object_name": "STARLINK-35729",
        "meta_object_id": "2025-280S",
        "meta_epoch": "2025-12-20T04:00:00.999072",
        "meta_mean_motion": 15.52509174,
        "meta_eccentricity": 0.0003469,
        "meta_inclination": 69.9995,
        "meta_ra_of_asc_node": 178.0378,
        "meta_arg_of_pericenter": 272.2712,
        "meta_mean_anomaly": 223.1793,
        "meta_ephemeris_type": 0,
        "meta_classification_type": "U",
        "meta_norad_cat_id": 66837,
        "meta_element_set_no": 999,
        "meta_rev_at_epoch": 409,
        "meta_bstar": -6.7377e-05,
        "meta_mean_motion_dot": -4.309e-05,
        "meta_mean_motion_ddot": 0,
        "tle_line1": "1 66837U 25280S   25354.16667823 -.00004309  00000+0 -67377-4 0  9996",
        "tle_line2": "2 66837  69.9995 178.0378 0003469 272.2712 223.1793 15.52509174  4097"
      },
      "geometry": {
        "type": "Point",
        "coordinates": [
          177.07288562567217,
          -0.895207293090491
        ]
      }
    },
    {
      "type": "Feature",
      "properties": {
        "norad_id": 66838,
        "name": "STARLINK-35886",
        "group": "last-30-days",
        "lat": 2.7585892802371643,
        "lon": 178.3984201250603,
        "alt_km": 411.3055584999456,
        "timestamp": "2025-12-20T09:36:00.353662+00:00",
        "meta_object_name": "STARLINK-35886",
        "meta_object_id": "2025-280T",
        "meta_epoch": "2025-12-20T04:00:00.999072",
        "meta_mean_motion": 15.52643714,
        "meta_eccentricity": 0.0002855,
        "meta_inclination": 69.9996,
        "meta_ra_of_asc_node": 178.0317,
        "meta_arg_of_pericenter": 276.6324,
        "meta_mean_anomaly": 222.6396,
        "meta_ephemeris_type": 0,
        "meta_classification_type": "U",
        "meta_norad_cat_id": 66838,
        "meta_element_set_no": 999,
        "meta_rev_at_epoch": 409,
        "meta_bstar": -0.0033538,
        "meta_mean_motion_dot": -0.00202232,
        "meta_mean_motion_ddot": 0,
        "tle_line1": "1 66838U 25280T   25354.16667823 -.00202232  00000+0 -33538-2 0  9992",
        "tle_line2": "2 66838  69.9996 178.0317 0002855 276.6324 222.6396 15.52643714  4099"
      },
      "geometry": {
        "type": "Point",
        "coordinates": [
          178.3984201250603,
          2.7585892802371643
        ]
      }
    },
    {
      "type": "Feature",
      "properties": {
        "norad_id": 66839,
        "name": "STARLINK-35717",
        "group": "last-30-days",
        "lat": 0.8822437533153568,
        "lon": 177.7160497067885,
        "alt_km": 411.95140245163657,
        "timestamp": "2025-12-20T09:36:00.353673+00:00",
        "meta_object_name": "STARLINK-35717",
        "meta_object_id": "2025-280U",
        "meta_epoch": "2025-12-20T04:00:00.999072",
        "meta_mean_motion": 15.52519207,
        "meta_eccentricity": 0.000298,
        "meta_inclination": 69.9994,
        "meta_ra_of_asc_node": 178.0335,
        "meta_arg_of_pericenter": 265.3544,
        "meta_mean_anomaly": 231.9836,
        "meta_ephemeris_type": 0,
        "meta_classification_type": "U",
        "meta_norad_cat_id": 66839,
        "meta_element_set_no": 999,
        "meta_rev_at_epoch": 409,
        "meta_bstar": 2.5838e-05,
        "meta_mean_motion_dot": 1.422e-05,
        "meta_mean_motion_ddot": 0,
        "tle_line1": "1 66839U 25280U   25354.16667823  .00001422  00000+0  25838-4 0  9995",
        "tle_line2": "2 66839  69.9994 178.0335 0002980 265.3544 231.9836 15.52519207  4097"
      },
      "geometry": {
        "type": "Point",
        "coordinates": [
          177.7160497067885,
          0.8822437533153568
        ]
      }
    },
    {
      "type": "Feature",
      "properties": {
        "norad_id": 66840,
        "name": "STARLINK-35837",
        "group": "last-30-days",
        "lat": 4.4869333571432435,
        "lon": 179.02948848346142,
        "alt_km": 411.53723417084984,
        "timestamp": "2025-12-20T09:36:00.353683+00:00",
        "meta_object_name": "STARLINK-35837",
        "meta_object_id": "2025-280V",
        "meta_epoch": "2025-12-20T04:00:00.999072",
        "meta_mean_motion": 15.5251376,
        "meta_eccentricity": 0.000291,
        "meta_inclination": 69.9993,
        "meta_ra_of_asc_node": 178.0304,
        "meta_arg_of_pericenter": 267.1243,
        "meta_mean_anomaly": 234.0541,
        "meta_ephemeris_type": 0,
        "meta_classification_type": "U",
        "meta_norad_cat_id": 66840,
        "meta_element_set_no": 999,
        "meta_rev_at_epoch": 409,
        "meta_bstar": 0.00010245,
        "meta_mean_motion_dot": 6.139e-05,
        "meta_mean_motion_ddot": 0,
        "tle_line1": "1 66840U 25280V   25354.16667823  .00006139  00000+0  10245-3 0  9992",
        "tle_line2": "2 66840  69.9993 178.0304 0002910 267.1243 234.0541 15.52513760  4098"
      },
      "geometry": {
        "type": "Point",
        "coordinates": [
          179.02948848346142,
          4.4869333571432435
        ]
      }
    }
  ]
}